KUIPER-00044            
1 64505U 25134F   25212.91668981 -.00011418  00000+0 -57990-3 0  9994
2 64505  51.8718 147.2403 0011379 257.0693 323.5263 15.15445284  5239
KUIPER-00046            
1 64506U 25134G   25213.25002315 -.00637033  00000+0 -29000-1 0  9992
2 64506  51.8723 144.7544 0007866 268.3594  72.0014 15.22635381  6738
KUIPER-00047            
1 64507U 25134H   25213.01804616  .00043600  00000+0  12908-2 0  9990
2 64507  51.8634 145.3924 0009877 267.0807  92.9048 15.34407599  6702
KUIPER-00048            
1 64508U 25134J   25213.03360967  .00020247  00000+0  57093-3 0  9996
2 64508  51.8759 144.8001 0002927 235.4533 124.6178 15.36388651  6712
KUIPER-00049            
1 64509U 25134K   25212.53594883  .00024127  00000+0  69592-3 0  9995
2 64509  51.8722 147.4451 0006582 243.8692 116.1617 15.35554836  7074
KUIPER-00050            
1 64510U 25134L   25213.19169421  .00044209  00000+0  12798-2 0  9994
2 64510  51.8723 144.3439 0007502 241.5456 118.4774 15.35127437  6739
KUIPER-00051            
1 64511U 25134M   25213.11501424  .00028532  00000+0  81693-3 0  9992
2 64511  51.8727 144.5845 0005056 233.9910 126.0608 15.35698977  7104
KUIPER-00052            
1 64512U 25134N   25213.25002315  .01368817  00000+0  25597-1 0  9996
2 64512  51.8747 143.3260 0003660 275.6335  52.9145 15.45477970  6749
